NORAD_CAT_ID,OBJECT_NAME,OBJECT_TYPE,EPOCH,MEAN_MOTION,ECCENTRICITY,INCLINATION,RA_OF_ASC_NODE,ARG_OF_PERICENTER,MEAN_ANOMALY,BSTAR,MEAN_MOTION_DOT,MEAN_MOTION_DDOT,TLE_LINE0,TLE_LINE1,TLE_LINE2,SEMIMAJOR_AXIS,PERIOD,APOGEE,PERIGEE,DECAYED
53911.0,STARLINK-5048,PAYLOAD,2023-09-18 10:46:33,15.08836117,0.0001345,53.2186,49.1079,92.5495,267.5651,7.3523e-05,8.82e-06,0.0,0 STARLINK-5048,1 53911U 22119AB  23261.44899422  .00000882  00000-0  73523-4 0  9992,2 53911  53.2186  49.1079 0001345  92.5495 267.5651 15.08836117 55049,6917.892,95.438,540.688,538.827,0.0
53911.0,STARLINK-5048,PAYLOAD,2023-09-18 13:57:19,15.0883734,0.0001375,53.2187,48.5134,92.975,267.14,8.9658e-05,1.139e-05,0.0,0 STARLINK-5048,1 53911U 22119AB  23261.58147397  .00001139  00000-0  89658-4 0  9996,2 53911  53.2187  48.5134 0001375  92.9750 267.1400 15.08837340 55481,6917.889,95.438,540.705,538.802,0.0
53911.0,STARLINK-5048,PAYLOAD,2023-09-18 15:32:42,15.08837586,0.0001383,53.2182,48.216,92.747,267.368,8.5988e-05,1.081e-05,0.0,0 STARLINK-5048,1 53911U 22119AB  23261.64771388  .00001081  00000-0  85988-4 0  9994,2 53911  53.2182  48.2160 0001383  92.7470 267.3680 15.08837586 55493,6917.888,95.438,540.71,538.796,0.0
53911.0,STARLINK-5048,PAYLOAD,2023-09-19 10:37:19,15.08846692,0.0001502,53.2189,44.6466,93.9908,266.1256,0.00021085,3.07e-05,0.0,0 STARLINK-5048,1 53911U 22119AB  23262.44259038  .00003070  00000-0  21085-3 0  9993,2 53911  53.2189  44.6466 0001502  93.9908 266.1256 15.08846692 55192,6917.86,95.437,540.764,538.686,0.0
53911.0,STARLINK-5048,PAYLOAD,2023-09-19 16:58:51,15.08859477,0.0001497,53.2186,43.4569,91.1112,269.0052,0.00049533,7.608e-05,0.0,0 STARLINK-5048,1 53911U 22119AB  23262.70754541  .00007608  00000-0  49533-3 0  9990,2 53911  53.2186  43.4569 0001497  91.1112 269.0052 15.08859477 55236,6917.821,95.436,540.721,538.65,0.0
53911.0,STARLINK-5048,PAYLOAD,2023-09-20 08:52:44,15.08829294,0.000166,53.2187,40.4835,90.1963,269.9219,-0.00013985,-2.512e-05,0.0,0 STARLINK-5048,1 53911U 22119AB  23263.36995787 -.00002512  00000-0 -13985-3 0  9995,2 53911  53.2187  40.4835 0001660  90.1963 269.9219 15.08829294 55334,6917.913,95.438,540.926,538.63,0.0
53911.0,STARLINK-5048,PAYLOAD,2023-09-20 13:38:54,15.08822814,0.000149,53.2186,39.5914,111.1726,248.9426,-0.0001728,-3.036e-05,0.0,0 STARLINK-5048,1 53911U 22119AB  23263.56868208 -.00003036  00000-0 -17280-3 0  9998,2 53911  53.2186  39.5914 0001490 111.1726 248.9426 15.08822814 55789,6917.933,95.439,540.829,538.767,0.0
53911.0,STARLINK-5048,PAYLOAD,2023-09-20 18:25:04,15.08813174,0.0001449,53.2182,38.6986,71.7563,288.3586,-0.00021738,-3.743e-05,0.0,0 STARLINK-5048,1 53911U 22119AB  23263.76740895 -.00003743  00000-0 -21738-3 0  9999,2 53911  53.2182  38.6986 0001449  71.7563 288.3586 15.08813174 55399,6917.962,95.439,540.83,538.825,0.0
53911.0,STARLINK-5048,PAYLOAD,2023-09-21 08:43:33,15.0882694,0.000125,53.2176,36.0211,68.1271,291.9854,0.001001,0.00015673,0.0,0 STARLINK-5048,1 53911U 22119AB  23264.36357777  .00015673  00000-0  10010-2 0  9992,2 53911  53.2176  36.0211 0001250  68.1271 291.9854 15.08826940 55484,6917.92,95.438,540.65,538.921,0.0
53911.0,STARLINK-5048,PAYLOAD,2023-09-21 13:29:42,15.08844088,0.0001248,53.2175,35.1304,69.6695,290.4432,0.0013677,0.00021548,0.0,0 STARLINK-5048,1 53911U 22119AB  23264.56229547  .00021548  00000-0  13677-2 0  9997,2 53911  53.2175  35.1304 0001248  69.6695 290.4432 15.08844088 55938,6917.868,95.437,540.596,538.87,0.0
53911.0,STARLINK-5048,PAYLOAD,2023-09-21 15:05:05,15.08853985,0.0001387,53.2175,34.8334,64.5955,295.5181,0.0017414,0.00027546,0.0,0 STARLINK-5048,1 53911U 22119AB  23264.62853520  .00027546  00000-0  17414-2 0  9995,2 53911  53.2175  34.8334 0001387  64.5955 295.5181 15.08853985 55522,6917.838,95.437,540.662,538.743,0.0
53911.0,STARLINK-5048,PAYLOAD,2023-09-22 08:34:19,15.08873695,0.0001576,53.2174,31.5655,61.3372,298.7778,0.0011768,0.00018508,0.0,0 STARLINK-5048,1 53911U 22119AB  23265.35716550  .00018508  00000-0  11768-2 0  9991,2 53911  53.2174  31.5655 0001576  61.3372 298.7778 15.08873695 55638,6917.777,95.435,540.733,538.552,0.0
53911.0,STARLINK-5048,PAYLOAD,2023-09-22 13:20:28,15.08878658,0.0001338,53.2175,30.6709,71.1807,288.933,0.0011372,0.00017876,0.0,0 STARLINK-5048,1 53911U 22119AB  23265.55588077  .00017876  00000-0  11372-2 0  9992,2 53911  53.2175  30.6709 0001338  71.1807 288.9330 15.08878658 56086,6917.762,95.435,540.553,538.702,0.0
53911.0,STARLINK-5048,PAYLOAD,2023-09-22 14:55:51,15.08882124,0.000136,53.2175,30.3736,71.0882,289.0257,0.0012081,0.00019013,0.0,0 STARLINK-5048,1 53911U 22119AB  23265.62211897  .00019013  00000-0  12081-2 0  9996,2 53911  53.2175  30.3736 0001360  71.0882 289.0257 15.08882124 56094,6917.752,95.435,540.557,538.676,0.0
53911.0,STARLINK-5048,PAYLOAD,2023-09-23 11:35:51,15.08852715,0.0001472,53.2182,26.5074,66.0877,294.0269,9.7425e-05,1.263e-05,0.0,0 STARLINK-5048,1 53911U 22119AB  23266.48323515  .00001263  00000-0  97425-4 0  9997,2 53911  53.2182  26.5074 0001472  66.0877 294.0269 15.08852715 55806,6917.842,95.437,540.725,538.688,0.0
53911.0,STARLINK-5048,PAYLOAD,2023-09-23 13:11:14,15.08850678,0.0001361,53.2181,26.2102,73.2969,286.8173,6.1107e-05,6.85e-06,0.0,0 STARLINK-5048,1 53911U 22119AB  23266.54947397  .00000685  00000-0  61107-4 0  9999,2 53911  53.2181  26.2102 0001361  73.2969 286.8173 15.08850678 56230,6917.848,95.437,540.654,538.771,0.0
53911.0,STARLINK-5048,PAYLOAD,2023-09-24 08:15:52,15.08843112,0.0001362,53.2185,22.6415,86.9945,273.1203,3.8279e-05,3.21e-06,0.0,0 STARLINK-5048,1 53911U 22119AB  23267.34435452  .00000321  00000-0  38279-4 0  9993,2 53911  53.2185  22.6415 0001362  86.9945 273.1203 15.08843112 55931,6917.871,95.437,540.678,538.794,0.0
53911.0,STARLINK-5048,PAYLOAD,2023-09-24 13:02:01,15.0885002,0.0001366,53.218,21.7492,85.5225,274.5923,4.4947e-05,4.28e-06,0.0,0 STARLINK-5048,1 53911U 22119AB  23267.54307172  .00000428  00000-0  44947-4 0  9999,2 53911  53.2180  21.7492 0001366  85.5225 274.5923 15.08850020 56381,6917.85,95.437,540.66,538.77,0.0
53911.0,STARLINK-5048,PAYLOAD,2023-09-25 12:52:48,15.08845569,0.0001498,53.2193,17.2901,104.2409,255.875,0.00014348,1.997e-05,0.0,0 STARLINK-5048,1 53911U 22119AB  23268.53667260  .00001997  00000-0  14348-3 0  9999,2 53911  53.2193  17.2901 0001498 104.2409 255.8750 15.08845569 56538,6917.863,95.437,540.765,538.692,0.0
53911.0,STARLINK-5048,PAYLOAD,2023-09-25 14:28:11,15.08849571,0.0001284,53.218,16.9931,92.8585,267.2554,0.00020822,3.028e-05,0.0,0 STARLINK-5048,1 53911U 22119AB  23268.60291099  .00003028  00000-0  20822-3 0  9991,2 53911  53.2180  16.9931 0001284  92.8585 267.2554 15.08849571 56124,6917.851,95.437,540.604,538.828,0.0
53911.0,STARLINK-5048,PAYLOAD,2023-09-26 11:08:13,15.08832429,0.0001192,53.2177,13.1268,85.9099,274.2029,-6.8321e-05,-1.375e-05,0.0,0 STARLINK-5048,1 53911U 22119AB  23269.46404116 -.00001375  00000-0 -68321-4 0  9994,2 53911  53.2177  13.1268 0001192  85.9099 274.2029 15.08832429 56256,6917.904,95.438,540.593,538.944,0.0
53911.0,STARLINK-5048,PAYLOAD,2023-09-26 12:43:36,15.08832925,0.0001422,53.2185,12.8292,76.3338,283.7813,-1.0946e-05,-4.62e-06,0.0,0 STARLINK-5048,1 53911U 22119AB  23269.53028266 -.00000462  00000-0 -10946-4 0  9996,2 53911  53.2185  12.8292 0001422  76.3338 283.7813 15.08832925 56688,6917.902,95.438,540.751,538.783,0.0
53911.0,STARLINK-5048,PAYLOAD,2023-09-27 12:34:23,15.08836843,0.0001426,53.2179,8.367,84.0954,276.0201,2.828e-05,1.62e-06,0.0,0 STARLINK-5048,1 53911U 22119AB  23270.52388541  .00000162  00000-0  28280-4 0  9997,2 53911  53.2179   8.3670 0001426  84.0954 276.0201 15.08836843 56831,6917.89,95.438,540.742,538.769,0.0
53911.0,STARLINK-5048,PAYLOAD,2023-09-27 14:09:46,15.08842214,0.0001401,53.2183,8.0693,84.3724,275.7428,0.0001105,1.471e-05,0.0,0 STARLINK-5048,1 53911U 22119AB  23270.59012296  .00001471  00000-0  11050-3 0  9995,2 53911  53.2183   8.0693 0001401  84.3724 275.7428 15.08842214 56420,6917.874,95.437,540.708,538.769,0.0
53911.0,STARLINK-5048,PAYLOAD,2023-09-28 12:25:10,15.08840988,0.0001573,53.2175,3.9114,60.8087,299.3062,0.00020253,2.937e-05,0.0,0 STARLINK-5048,1 53911U 22119AB  23271.51748841  .00002937  00000-0  20253-3 0  9993,2 53911  53.2175   3.9114 0001573  60.8087 299.3062 15.08840988 56561,6917.877,95.437,540.831,538.654,0.0
53911.0,STARLINK-5048,PAYLOAD,2023-09-28 14:00:33,15.08845368,0.0001549,53.2189,3.6101,66.3243,293.7912,0.00026289,3.899e-05,0.0,0 STARLINK-5048,1 53911U 22119AB  23271.58372586  .00003899  00000-0  26289-3 0  9992,2 53911  53.2189   3.6101 0001549  66.3243 293.7912 15.08845368 56993,6917.864,95.437,540.801,538.657,0.0
53911.0,STARLINK-5048,PAYLOAD,2023-09-28 15:35:56,15.08848755,0.0001511,53.2196,3.3105,71.1366,288.979,0.00030624,4.59e-05,0.0,0 STARLINK-5048,1 53911U 22119AB  23271.64996381  .00004590  00000-0  30624-3 0  9991,2 53911  53.2196   3.3105 0001511  71.1366 288.9790 15.08848755 57007,6917.854,95.437,540.764,538.673,0.0
53911.0,STARLINK-5048,PAYLOAD,2023-09-29 10:40:34,15.08842754,0.0001952,53.2193,359.7451,90.5431,269.5785,7.1613e-05,8.52e-06,0.0,0 STARLINK-5048,1 53911U 22119AB  23272.44484846  .00000852  00000-0  71613-4 0  9999,2 53911  53.2193 359.7451 0001952  90.5431 269.5785 15.08842754 56701,6917.872,95.437,541.087,538.387,0.0
53911.0,STARLINK-5048,PAYLOAD,2023-09-29 12:15:57,15.08843762,0.0001556,53.2187,359.4487,90.0356,270.0815,4.7496e-05,4.68e-06,0.0,0 STARLINK-5048,1 53911U 22119AB  23272.51108664  .00000468  00000-0  47496-4 0  9993,2 53911  53.2187 359.4487 0001556  90.0356 270.0815 15.08843762 57130,6917.869,95.437,540.81,538.657,0.0
53911.0,STARLINK-5048,PAYLOAD,2023-09-29 23:23:39,15.08844185,0.0001613,53.2186,357.3676,81.3173,278.8001,0.0001314,1.804e-05,0.0,0 STARLINK-5048,1 53911U 22119AB  23272.97476794  .00001804  00000-0  13140-3 0  9998,2 53911  53.2186 357.3676 0001613  81.3173 278.8001 15.08844185 57201,6917.868,95.437,540.848,538.617,0.0
